{"type":"FeatureCollection","features":[{"type":"Feature","id":"way/607758299","properties":{"access":"yes","amenity":"bicycle_parking","covered":"yes","id":"way/607758299"},"geometry":{"type":"Polygon","coordinates":[[[-79.6690304,43.567368],[-79.6691335,43.5673921],[-79.6691403,43.5673729],[-79.6690372,43.5673501],[-79.6690304,43.567368]]]}},{"type":"Feature","id":"way/839400208","properties":{"amenity":"bicycle_parking","bicycle_parking":"building","building":"yes","covered":"yes","id":"way/839400208"},"geometry":{"type":"Polygon","coordinates":[[[-79.5914344,43.6630933],[-79.5914132,43.6630818],[-79.5913415,43.663151],[-79.5913627,43.6631625],[-79.5914344,43.6630933]]]}},{"type":"Feature","id":"node/415742194","properties":{"access":"yes","amenity":"bicycle_parking","bicycle_parking":"stands","covered":"yes","fee":"no","lit":"yes","supervised":"no","surface":"concrete","id":"node/415742194"},"geometry":{"type":"Point","coordinates":[-79.5871074,43.5558273]}},{"type":"Feature","id":"node/432302007","properties":{"access":"yes","amenity":"bicycle_parking","bicycle_parking":"wave","capacity":"6","old_amenity":"fountain","id":"node/432302007"},"geometry":{"type":"Point","coordinates":[-79.6430864,43.5875469]}},{"type":"Feature","id":"way/607758299","properties":{"access":"yes","amenity":"bicycle_parking","covered":"yes","id":"way/607758299"},"geometry":{"type":"Point","coordinates":[-79.6690853,43.5673711]}},{"type":"Feature","id":"way/839400208","properties":{"amenity":"bicycle_parking","bicycle_parking":"building","building":"yes","covered":"yes","id":"way/839400208"},"geometry":{"type":"Point","coordinates":[-79.5913879,43.6631221]}},{"type":"Feature","id":"node/1336872838","properties":{"amenity":"bicycle_parking","id":"node/1336872838"},"geometry":{"type":"Point","coordinates":[-79.7542709,43.5973054]}},{"type":"Feature","id":"node/1505342739","properties":{"amenity":"bicycle_parking","id":"node/1505342739"},"geometry":{"type":"Point","coordinates":[-79.6470256,43.5878399]}},{"type":"Feature","id":"node/1580419940","properties":{"amenity":"bicycle_parking","bicycle_parking":"stands","id":"node/1580419940"},"geometry":{"type":"Point","coordinates":[-79.7565604,43.5852816]}},{"type":"Feature","id":"node/1862844991","properties":{"amenity":"bicycle_parking","created_by":"iLOE 1.9","id":"node/1862844991"},"geometry":{"type":"Point","coordinates":[-79.643388,43.589071]}},{"type":"Feature","id":"node/1862912866","properties":{"amenity":"bicycle_parking","created_by":"iLOE 1.9","id":"node/1862912866"},"geometry":{"type":"Point","coordinates":[-79.648009,43.594705]}},{"type":"Feature","id":"node/1864868539","properties":{"amenity":"bicycle_parking","id":"node/1864868539"},"geometry":{"type":"Point","coordinates":[-79.5840957,43.5502321]}},{"type":"Feature","id":"node/2106620638","properties":{"amenity":"bicycle_parking","id":"node/2106620638"},"geometry":{"type":"Point","coordinates":[-79.6216892,43.6875647]}},{"type":"Feature","id":"node/2177959372","properties":{"amenity":"bicycle_parking","id":"node/2177959372"},"geometry":{"type":"Point","coordinates":[-79.5793471,43.5577874]}},{"type":"Feature","id":"node/2308376269","properties":{"access":"yes","amenity":"bicycle_parking","bicycle_parking":"rack","capacity":"6","id":"node/2308376269"},"geometry":{"type":"Point","coordinates":[-79.5937718,43.6058349]}},{"type":"Feature","id":"node/2308376348","properties":{"access":"yes","amenity":"bicycle_parking","bicycle_parking":"rack","capacity":"6","covered":"no","id":"node/2308376348"},"geometry":{"type":"Point","coordinates":[-79.5937504,43.6056621]}},{"type":"Feature","id":"node/2383646699","properties":{"amenity":"bicycle_parking","id":"node/2383646699"},"geometry":{"type":"Point","coordinates":[-79.6629441,43.5511316]}},{"type":"Feature","id":"node/2383647227","properties":{"amenity":"bicycle_parking","id":"node/2383647227"},"geometry":{"type":"Point","coordinates":[-79.6634633,43.5512476]}},{"type":"Feature","id":"node/2383650295","properties":{"amenity":"bicycle_parking","id":"node/2383650295"},"geometry":{"type":"Point","coordinates":[-79.6633638,43.5516683]}},{"type":"Feature","id":"node/2383653566","properties":{"amenity":"bicycle_parking","id":"node/2383653566"},"geometry":{"type":"Point","coordinates":[-79.6643539,43.5514534]}},{"type":"Feature","id":"node/2383653978","properties":{"amenity":"bicycle_parking","id":"node/2383653978"},"geometry":{"type":"Point","coordinates":[-79.6641153,43.5514505]}},{"type":"Feature","id":"node/2383656601","properties":{"amenity":"bicycle_parking","id":"node/2383656601"},"geometry":{"type":"Point","coordinates":[-79.6632078,43.5504209]}},{"type":"Feature","id":"node/2383659410","properties":{"amenity":"bicycle_parking","id":"node/2383659410"},"geometry":{"type":"Point","coordinates":[-79.6634579,43.5492855]}},{"type":"Feature","id":"node/2383659820","properties":{"amenity":"bicycle_parking","note":"under roof","id":"node/2383659820"},"geometry":{"type":"Point","coordinates":[-79.6639387,43.5491002]}},{"type":"Feature","id":"node/2383665708","properties":{"amenity":"bicycle_parking","id":"node/2383665708"},"geometry":{"type":"Point","coordinates":[-79.6618465,43.5475906]}},{"type":"Feature","id":"node/2383669438","properties":{"amenity":"bicycle_parking","id":"node/2383669438"},"geometry":{"type":"Point","coordinates":[-79.6605836,43.5481974]}},{"type":"Feature","id":"node/2665392055","properties":{"amenity":"bicycle_parking","id":"node/2665392055"},"geometry":{"type":"Point","coordinates":[-79.65033,43.5112792]}},{"type":"Feature","id":"node/2827215901","properties":{"amenity":"bicycle_parking","capacity":"1","note":"1 ring post","id":"node/2827215901"},"geometry":{"type":"Point","coordinates":[-79.7093512,43.5757704]}},{"type":"Feature","id":"node/3732240928","properties":{"amenity":"bicycle_parking","operator":"GO Transit","shelter":"yes","id":"node/3732240928"},"geometry":{"type":"Point","coordinates":[-79.6240734,43.5827245]}},{"type":"Feature","id":"node/3732240929","properties":{"amenity":"bicycle_parking","operator":"GO Transit","shelter":"yes","id":"node/3732240929"},"geometry":{"type":"Point","coordinates":[-79.6240175,43.5827678]}},{"type":"Feature","id":"node/3895939750","properties":{"access":"yes","amenity":"bicycle_parking","bicycle_parking":"stands","capacity":"14","covered":"yes","fee":"no","lit":"yes","supervised":"no","surface":"concrete","id":"node/3895939750"},"geometry":{"type":"Point","coordinates":[-79.5867058,43.5560344]}},{"type":"Feature","id":"node/3933224136","properties":{"amenity":"bicycle_parking","colour":"black","sidewalk_orientation":"between","id":"node/3933224136"},"geometry":{"type":"Point","coordinates":[-79.5821951,43.5556797]}},{"type":"Feature","id":"node/3957009945","properties":{"amenity":"bicycle_parking","id":"node/3957009945"},"geometry":{"type":"Point","coordinates":[-79.6635201,43.5684118]}},{"type":"Feature","id":"node/3976548446","properties":{"amenity":"bicycle_parking","bicycle_parking":"rack","id":"node/3976548446"},"geometry":{"type":"Point","coordinates":[-79.5610066,43.5740485]}},{"type":"Feature","id":"node/4010317084","properties":{"amenity":"bicycle_parking","id":"node/4010317084"},"geometry":{"type":"Point","coordinates":[-79.6634364,43.5404577]}},{"type":"Feature","id":"node/4060915356","properties":{"amenity":"bicycle_parking","bicycle_parking":"wall_loops","covered":"no","fee":"no","id":"node/4060915356"},"geometry":{"type":"Point","coordinates":[-79.7544175,43.5717987]}},{"type":"Feature","id":"node/4119206084","properties":{"amenity":"bicycle_parking","bicycle_parking":"rack","covered":"no","id":"node/4119206084"},"geometry":{"type":"Point","coordinates":[-79.6022009,43.5250433]}},{"type":"Feature","id":"node/4119206086","properties":{"amenity":"bicycle_parking","bicycle_parking":"rack","covered":"no","id":"node/4119206086"},"geometry":{"type":"Point","coordinates":[-79.6022615,43.5257254]}},{"type":"Feature","id":"node/4187770055","properties":{"amenity":"bicycle_parking","bicycle_parking":"bollard","capacity":"2","covered":"no","id":"node/4187770055"},"geometry":{"type":"Point","coordinates":[-79.5964357,43.5402616]}},{"type":"Feature","id":"node/4188357016","properties":{"amenity":"bicycle_parking","id":"node/4188357016"},"geometry":{"type":"Point","coordinates":[-79.6030319,43.5262261]}},{"type":"Feature","id":"node/4188357019","properties":{"amenity":"bicycle_parking","id":"node/4188357019"},"geometry":{"type":"Point","coordinates":[-79.6020958,43.5266377]}},{"type":"Feature","id":"node/4411681412","properties":{"amenity":"bicycle_parking","id":"node/4411681412"},"geometry":{"type":"Point","coordinates":[-79.6568954,43.6063508]}},{"type":"Feature","id":"node/4412306563","properties":{"amenity":"bicycle_parking","id":"node/4412306563"},"geometry":{"type":"Point","coordinates":[-79.6840223,43.5807829]}},{"type":"Feature","id":"node/5127411806","properties":{"amenity":"bicycle_parking","id":"node/5127411806"},"geometry":{"type":"Point","coordinates":[-79.6434934,43.5870822]}},{"type":"Feature","id":"node/5691628669","properties":{"amenity":"bicycle_parking","bicycle_parking":"bollard","capacity":"6","id":"node/5691628669"},"geometry":{"type":"Point","coordinates":[-79.5980269,43.5760324]}},{"type":"Feature","id":"node/6429330274","properties":{"amenity":"bicycle_parking","id":"node/6429330274"},"geometry":{"type":"Point","coordinates":[-79.5943259,43.5435012]}},{"type":"Feature","id":"node/6502281537","properties":{"access":"customers","amenity":"bicycle_parking","bicycle_parking":"rack","capacity":"4","covered":"no","id":"node/6502281537"},"geometry":{"type":"Point","coordinates":[-79.6175993,43.5804174]}},{"type":"Feature","id":"node/6502283083","properties":{"amenity":"bicycle_parking","bicycle_parking":"stands","capacity":"2","id":"node/6502283083"},"geometry":{"type":"Point","coordinates":[-79.6359242,43.589714]}},{"type":"Feature","id":"node/6515648404","properties":{"amenity":"bicycle_parking","bicycle_parking":"stands","capacity":"12","id":"node/6515648404"},"geometry":{"type":"Point","coordinates":[-79.6440544,43.5881064]}},{"type":"Feature","id":"node/6515650956","properties":{"access":"customers","amenity":"bicycle_parking","bicycle_parking":"bollard","capacity":"6","covered":"no","id":"node/6515650956"},"geometry":{"type":"Point","coordinates":[-79.6381133,43.5839109]}},{"type":"Feature","id":"node/6515654995","properties":{"amenity":"bicycle_parking","bicycle_parking":"bollard","capacity":"6","id":"node/6515654995"},"geometry":{"type":"Point","coordinates":[-79.6221432,43.5750264]}},{"type":"Feature","id":"node/6517092695","properties":{"amenity":"bicycle_parking","bicycle_parking":"bollard","capacity":"8","id":"node/6517092695"},"geometry":{"type":"Point","coordinates":[-79.7404106,43.5535569]}},{"type":"Feature","id":"node/6597575579","properties":{"amenity":"bicycle_parking","bicycle_parking":"loops","id":"node/6597575579"},"geometry":{"type":"Point","coordinates":[-79.5801041,43.6121554]}},{"type":"Feature","id":"node/6717350950","properties":{"access":"yes","amenity":"bicycle_parking","bicycle_parking":"rack","capacity":"4","id":"node/6717350950"},"geometry":{"type":"Point","coordinates":[-79.6287686,43.5724116]}},{"type":"Feature","id":"node/6719107504","properties":{"access":"customers","amenity":"bicycle_parking","bicycle_parking":"rack","capacity":"6","id":"node/6719107504"},"geometry":{"type":"Point","coordinates":[-79.660929,43.6152438]}},{"type":"Feature","id":"node/6721560914","properties":{"access":"customers","amenity":"bicycle_parking","bicycle_parking":"stands","capacity":"3","covered":"no","id":"node/6721560914"},"geometry":{"type":"Point","coordinates":[-79.6091511,43.5875934]}},{"type":"Feature","id":"node/6721560915","properties":{"access":"private","amenity":"bicycle_parking","bicycle_parking":"stands","capacity":"8","id":"node/6721560915"},"geometry":{"type":"Point","coordinates":[-79.684178,43.5869111]}},{"type":"Feature","id":"node/6721560916","properties":{"access":"private","amenity":"bicycle_parking","bicycle_parking":"stands","capacity":"8","id":"node/6721560916"},"geometry":{"type":"Point","coordinates":[-79.6751709,43.5790644]}},{"type":"Feature","id":"node/6721560917","properties":{"access":"private","amenity":"bicycle_parking","bicycle_parking":"wall_loops","capacity":"16","id":"node/6721560917"},"geometry":{"type":"Point","coordinates":[-79.6733043,43.5820942]}},{"type":"Feature","id":"node/6724266008","properties":{"amenity":"bicycle_parking","bicycle_parking":"bollard","capacity":"2","operator":"City of Mississauga","id":"node/6724266008"},"geometry":{"type":"Point","coordinates":[-79.6449748,43.5878551]}},{"type":"Feature","id":"node/6724266009","properties":{"amenity":"bicycle_parking","bicycle_parking":"bollard","capacity":"2","operator":"City of Mississauga","id":"node/6724266009"},"geometry":{"type":"Point","coordinates":[-79.6454687,43.5881942]}},{"type":"Feature","id":"node/6724266010","properties":{"amenity":"bicycle_parking","bicycle_parking":"bollard","capacity":"2","operator":"City of Mississauga","id":"node/6724266010"},"geometry":{"type":"Point","coordinates":[-79.6460384,43.5886373]}},{"type":"Feature","id":"node/6724266011","properties":{"amenity":"bicycle_parking","bicycle_parking":"bollard","capacity":"2","operator":"City of Mississauga","id":"node/6724266011"},"geometry":{"type":"Point","coordinates":[-79.6460501,43.5886457]}},{"type":"Feature","id":"node/6724266012","properties":{"amenity":"bicycle_parking","bicycle_parking":"bollard","capacity":"2","operator":"City of Mississauga","id":"node/6724266012"},"geometry":{"type":"Point","coordinates":[-79.6460606,43.5886559]}},{"type":"Feature","id":"node/6724266013","properties":{"amenity":"bicycle_parking","bicycle_parking":"bollard","capacity":"2","operator":"City of Mississauga","id":"node/6724266013"},"geometry":{"type":"Point","coordinates":[-79.6460723,43.5886677]}},{"type":"Feature","id":"node/6724266014","properties":{"amenity":"bicycle_parking","bicycle_parking":"bollard","capacity":"2","operator":"City of Mississauga","id":"node/6724266014"},"geometry":{"type":"Point","coordinates":[-79.6478025,43.5898423]}},{"type":"Feature","id":"node/6724266015","properties":{"amenity":"bicycle_parking","bicycle_parking":"bollard","capacity":"2","operator":"City of Mississauga","id":"node/6724266015"},"geometry":{"type":"Point","coordinates":[-79.6478083,43.5898381]}},{"type":"Feature","id":"node/6724266016","properties":{"amenity":"bicycle_parking","bicycle_parking":"bollard","capacity":"2","operator":"City of Mississauga","id":"node/6724266016"},"geometry":{"type":"Point","coordinates":[-79.6482006,43.5901493]}},{"type":"Feature","id":"node/6724266017","properties":{"amenity":"bicycle_parking","bicycle_parking":"bollard","capacity":"2","operator":"City of Mississauga","id":"node/6724266017"},"geometry":{"type":"Point","coordinates":[-79.6481901,43.5901552]}},{"type":"Feature","id":"node/6724968323","properties":{"amenity":"bicycle_parking","bicycle_parking":"bollard","capacity":"2","operator":"City of Mississauga","id":"node/6724968323"},"geometry":{"type":"Point","coordinates":[-79.6483065,43.589152]}},{"type":"Feature","id":"node/6724968324","properties":{"amenity":"bicycle_parking","bicycle_parking":"bollard","capacity":"2","operator":"City of Mississauga","id":"node/6724968324"},"geometry":{"type":"Point","coordinates":[-79.6478298,43.5895467]}},{"type":"Feature","id":"node/6724968325","properties":{"amenity":"bicycle_parking","bicycle_parking":"bollard","capacity":"2","operator":"City of Mississauga","id":"node/6724968325"},"geometry":{"type":"Point","coordinates":[-79.6485321,43.5886911]}},{"type":"Feature","id":"node/6724968326","properties":{"amenity":"bicycle_parking","bicycle_parking":"bollard","capacity":"2","operator":"City of Mississauga","id":"node/6724968326"},"geometry":{"type":"Point","coordinates":[-79.6487774,43.5881611]}},{"type":"Feature","id":"node/6724968327","properties":{"amenity":"bicycle_parking","bicycle_parking":"bollard","capacity":"2","operator":"City of Mississauga","id":"node/6724968327"},"geometry":{"type":"Point","coordinates":[-79.6487668,43.5881556]}},{"type":"Feature","id":"node/6724968328","properties":{"amenity":"bicycle_parking","bicycle_parking":"bollard","capacity":"2","operator":"City of Mississauga","id":"node/6724968328"},"geometry":{"type":"Point","coordinates":[-79.648043,43.5876409]}},{"type":"Feature","id":"node/6724968329","properties":{"amenity":"bicycle_parking","bicycle_parking":"bollard","capacity":"2","operator":"City of Mississauga","id":"node/6724968329"},"geometry":{"type":"Point","coordinates":[-79.6480325,43.5876358]}},{"type":"Feature","id":"node/6724968330","properties":{"amenity":"bicycle_parking","bicycle_parking":"bollard","capacity":"2","operator":"City of Mississauga","id":"node/6724968330"},"geometry":{"type":"Point","coordinates":[-79.648022,43.5876274]}},{"type":"Feature","id":"node/6724968331","properties":{"amenity":"bicycle_parking","bicycle_parking":"bollard","capacity":"2","operator":"City of Mississauga","id":"node/6724968331"},"geometry":{"type":"Point","coordinates":[-79.6479379,43.587569]}},{"type":"Feature","id":"node/6724968332","properties":{"amenity":"bicycle_parking","bicycle_parking":"bollard","capacity":"2","operator":"City of Mississauga","id":"node/6724968332"},"geometry":{"type":"Point","coordinates":[-79.6479298,43.5875639]}},{"type":"Feature","id":"node/6724968333","properties":{"amenity":"bicycle_parking","bicycle_parking":"bollard","capacity":"2","operator":"City of Mississauga","id":"node/6724968333"},"geometry":{"type":"Point","coordinates":[-79.6479193,43.5875555]}},{"type":"Feature","id":"node/6724968334","properties":{"amenity":"bicycle_parking","bicycle_parking":"bollard","capacity":"2","operator":"City of Mississauga","id":"node/6724968334"},"geometry":{"type":"Point","coordinates":[-79.6471405,43.5876739]}},{"type":"Feature","id":"node/6724968335","properties":{"amenity":"bicycle_parking","bicycle_parking":"bollard","capacity":"2","operator":"City of Mississauga","id":"node/6724968335"},"geometry":{"type":"Point","coordinates":[-79.6471277,43.5876832]}},{"type":"Feature","id":"node/6724968336","properties":{"amenity":"bicycle_parking","bicycle_parking":"bollard","capacity":"2","operator":"City of Mississauga","id":"node/6724968336"},"geometry":{"type":"Point","coordinates":[-79.6471137,43.5876925]}},{"type":"Feature","id":"node/6724968337","properties":{"amenity":"bicycle_parking","bicycle_parking":"bollard","capacity":"2","operator":"City of Mississauga","id":"node/6724968337"},"geometry":{"type":"Point","coordinates":[-79.6471032,43.5877009]}},{"type":"Feature","id":"node/6724968338","properties":{"amenity":"bicycle_parking","bicycle_parking":"bollard","capacity":"2","operator":"City of Mississauga","id":"node/6724968338"},"geometry":{"type":"Point","coordinates":[-79.6470903,43.5877111]}},{"type":"Feature","id":"node/6724968339","properties":{"amenity":"bicycle_parking","bicycle_parking":"bollard","capacity":"2","operator":"City of Mississauga","id":"node/6724968339"},"geometry":{"type":"Point","coordinates":[-79.6459018,43.5883495]}},{"type":"Feature","id":"node/6724968340","properties":{"amenity":"bicycle_parking","bicycle_parking":"bollard","capacity":"2","operator":"City of Mississauga","id":"node/6724968340"},"geometry":{"type":"Point","coordinates":[-79.646384,43.5880409]}},{"type":"Feature","id":"node/6724968341","properties":{"amenity":"bicycle_parking","bicycle_parking":"bollard","capacity":"2","operator":"City of Mississauga","id":"node/6724968341"},"geometry":{"type":"Point","coordinates":[-79.6472876,43.5873204]}},{"type":"Feature","id":"node/6724968342","properties":{"amenity":"bicycle_parking","bicycle_parking":"bollard","capacity":"2","operator":"City of Mississauga","id":"node/6724968342"},"geometry":{"type":"Point","coordinates":[-79.6471242,43.5869593]}},{"type":"Feature","id":"node/6724968343","properties":{"amenity":"bicycle_parking","bicycle_parking":"bollard","capacity":"2","operator":"City of Mississauga","id":"node/6724968343"},"geometry":{"type":"Point","coordinates":[-79.6471102,43.58695]}},{"type":"Feature","id":"node/6724968344","properties":{"amenity":"bicycle_parking","bicycle_parking":"bollard","capacity":"2","operator":"City of Mississauga","id":"node/6724968344"},"geometry":{"type":"Point","coordinates":[-79.6477827,43.5868857]}},{"type":"Feature","id":"node/6724968345","properties":{"amenity":"bicycle_parking","bicycle_parking":"bollard","capacity":"2","operator":"City of Mississauga","id":"node/6724968345"},"geometry":{"type":"Point","coordinates":[-79.6477978,43.5868756]}},{"type":"Feature","id":"node/6724968346","properties":{"amenity":"bicycle_parking","bicycle_parking":"bollard","capacity":"2","operator":"City of Mississauga","id":"node/6724968346"},"geometry":{"type":"Point","coordinates":[-79.6479477,43.5867697]}},{"type":"Feature","id":"node/6724968347","properties":{"amenity":"bicycle_parking","bicycle_parking":"bollard","capacity":"2","operator":"City of Mississauga","id":"node/6724968347"},"geometry":{"type":"Point","coordinates":[-79.6479659,43.5867601]}},{"type":"Feature","id":"node/6724968348","properties":{"amenity":"bicycle_parking","bicycle_parking":"bollard","capacity":"2","operator":"City of Mississauga","id":"node/6724968348"},"geometry":{"type":"Point","coordinates":[-79.6469802,43.5857136]}},{"type":"Feature","id":"node/6724968349","properties":{"amenity":"bicycle_parking","bicycle_parking":"bollard","capacity":"2","operator":"City of Mississauga","id":"node/6724968349"},"geometry":{"type":"Point","coordinates":[-79.6469109,43.5857507]}},{"type":"Feature","id":"node/6724968350","properties":{"amenity":"bicycle_parking","bicycle_parking":"bollard","capacity":"2","operator":"City of Mississauga","id":"node/6724968350"},"geometry":{"type":"Point","coordinates":[-79.6465129,43.5860043]}},{"type":"Feature","id":"node/6724968351","properties":{"amenity":"bicycle_parking","bicycle_parking":"bollard","capacity":"2","operator":"City of Mississauga","id":"node/6724968351"},"geometry":{"type":"Point","coordinates":[-79.6464667,43.5860342]}},{"type":"Feature","id":"node/6725041694","properties":{"amenity":"bicycle_parking","bicycle_parking":"bollard","capacity":"2","operator":"City of Mississauga","id":"node/6725041694"},"geometry":{"type":"Point","coordinates":[-79.6465443,43.5861442]}},{"type":"Feature","id":"node/6725041695","properties":{"amenity":"bicycle_parking","bicycle_parking":"bollard","capacity":"2","operator":"City of Mississauga","id":"node/6725041695"},"geometry":{"type":"Point","coordinates":[-79.6465674,43.5861633]}},{"type":"Feature","id":"node/6726730690","properties":{"amenity":"bicycle_parking","bicycle_parking":"bollard","capacity":"2","operator":"City of Mississauga","id":"node/6726730690"},"geometry":{"type":"Point","coordinates":[-79.6469243,43.5864397]}},{"type":"Feature","id":"node/6726730691","properties":{"amenity":"bicycle_parking","bicycle_parking":"bollard","capacity":"2","operator":"City of Mississauga","id":"node/6726730691"},"geometry":{"type":"Point","coordinates":[-79.6470262,43.5865272]}},{"type":"Feature","id":"node/6726730692","properties":{"amenity":"bicycle_parking","bicycle_parking":"bollard","capacity":"2","operator":"City of Mississauga","id":"node/6726730692"},"geometry":{"type":"Point","coordinates":[-79.6470477,43.5865563]}},{"type":"Feature","id":"node/6726730693","properties":{"amenity":"bicycle_parking","bicycle_parking":"bollard","capacity":"2","operator":"City of Mississauga","id":"node/6726730693"},"geometry":{"type":"Point","coordinates":[-79.647214,43.5866748]}},{"type":"Feature","id":"node/6726730694","properties":{"amenity":"bicycle_parking","bicycle_parking":"bollard","capacity":"2","operator":"City of Mississauga","id":"node/6726730694"},"geometry":{"type":"Point","coordinates":[-79.6472381,43.5866962]}},{"type":"Feature","id":"node/6726730695","properties":{"amenity":"bicycle_parking","bicycle_parking":"bollard","capacity":"2","operator":"City of Mississauga","id":"node/6726730695"},"geometry":{"type":"Point","coordinates":[-79.648074,43.5869096]}},{"type":"Feature","id":"node/6726730696","properties":{"amenity":"bicycle_parking","bicycle_parking":"bollard","capacity":"2","operator":"City of Mississauga","id":"node/6726730696"},"geometry":{"type":"Point","coordinates":[-79.6480873,43.5869015]}},{"type":"Feature","id":"node/6726730697","properties":{"amenity":"bicycle_parking","bicycle_parking":"bollard","capacity":"2","operator":"City of Mississauga","id":"node/6726730697"},"geometry":{"type":"Point","coordinates":[-79.6482725,43.5867505]}},{"type":"Feature","id":"node/6726730698","properties":{"amenity":"bicycle_parking","bicycle_parking":"bollard","capacity":"2","operator":"City of Mississauga","id":"node/6726730698"},"geometry":{"type":"Point","coordinates":[-79.6482455,43.5867691]}},{"type":"Feature","id":"node/6726730699","properties":{"amenity":"bicycle_parking","bicycle_parking":"bollard","capacity":"2","operator":"City of Mississauga","id":"node/6726730699"},"geometry":{"type":"Point","coordinates":[-79.6485455,43.5865552]}},{"type":"Feature","id":"node/6726730700","properties":{"amenity":"bicycle_parking","bicycle_parking":"bollard","capacity":"2","operator":"City of Mississauga","id":"node/6726730700"},"geometry":{"type":"Point","coordinates":[-79.6485653,43.5865459]}},{"type":"Feature","id":"node/6726730701","properties":{"amenity":"bicycle_parking","bicycle_parking":"bollard","capacity":"2","operator":"City of Mississauga","id":"node/6726730701"},"geometry":{"type":"Point","coordinates":[-79.6488225,43.5864304]}},{"type":"Feature","id":"node/6726730702","properties":{"amenity":"bicycle_parking","bicycle_parking":"bollard","capacity":"2","operator":"City of Mississauga","id":"node/6726730702"},"geometry":{"type":"Point","coordinates":[-79.6488009,43.5864371]}},{"type":"Feature","id":"node/6726882949","properties":{"amenity":"bicycle_parking","bicycle_parking":"bollard","capacity":"2","operator":"City of Mississauga","id":"node/6726882949"},"geometry":{"type":"Point","coordinates":[-79.6465796,43.5857184]}},{"type":"Feature","id":"node/6726882950","properties":{"amenity":"bicycle_parking","bicycle_parking":"bollard","capacity":"2","operator":"City of Mississauga","id":"node/6726882950"},"geometry":{"type":"Point","coordinates":[-79.6465613,43.585736]}},{"type":"Feature","id":"node/6726882951","properties":{"amenity":"bicycle_parking","bicycle_parking":"bollard","capacity":"2","operator":"City of Mississauga","id":"node/6726882951"},"geometry":{"type":"Point","coordinates":[-79.6464556,43.585817]}},{"type":"Feature","id":"node/6726882952","properties":{"amenity":"bicycle_parking","bicycle_parking":"bollard","capacity":"2","operator":"City of Mississauga","id":"node/6726882952"},"geometry":{"type":"Point","coordinates":[-79.6464271,43.5858406]}},{"type":"Feature","id":"node/6726882953","properties":{"amenity":"bicycle_parking","bicycle_parking":"bollard","capacity":"2","operator":"City of Mississauga","id":"node/6726882953"},"geometry":{"type":"Point","coordinates":[-79.6459962,43.5848791]}},{"type":"Feature","id":"node/6726882954","properties":{"amenity":"bicycle_parking","bicycle_parking":"bollard","capacity":"2","operator":"City of Mississauga","id":"node/6726882954"},"geometry":{"type":"Point","coordinates":[-79.6459799,43.5848658]}},{"type":"Feature","id":"node/6726882955","properties":{"amenity":"bicycle_parking","bicycle_parking":"bollard","capacity":"2","id":"node/6726882955"},"geometry":{"type":"Point","coordinates":[-79.6460165,43.5849704]}},{"type":"Feature","id":"node/6726882956","properties":{"amenity":"bicycle_parking","bicycle_parking":"bollard","capacity":"2","id":"node/6726882956"},"geometry":{"type":"Point","coordinates":[-79.6460328,43.5849807]}},{"type":"Feature","id":"node/6726882957","properties":{"amenity":"bicycle_parking","bicycle_parking":"bollard","capacity":"2","operator":"City of Mississauga","id":"node/6726882957"},"geometry":{"type":"Point","coordinates":[-79.6466588,43.5840634]}},{"type":"Feature","id":"node/6726882958","properties":{"amenity":"bicycle_parking","bicycle_parking":"bollard","capacity":"2","operator":"City of Mississauga","id":"node/6726882958"},"geometry":{"type":"Point","coordinates":[-79.6466771,43.5840545]}},{"type":"Feature","id":"node/6726882959","properties":{"amenity":"bicycle_parking","bicycle_parking":"bollard","capacity":"2","operator":"City of Mississauga","id":"node/6726882959"},"geometry":{"type":"Point","coordinates":[-79.6467808,43.5843225]}},{"type":"Feature","id":"node/6726882960","properties":{"amenity":"bicycle_parking","bicycle_parking":"bollard","capacity":"2","operator":"City of Mississauga","id":"node/6726882960"},"geometry":{"type":"Point","coordinates":[-79.6467971,43.5843372]}},{"type":"Feature","id":"node/6726882961","properties":{"amenity":"bicycle_parking","bicycle_parking":"bollard","capacity":"2","operator":"City of Mississauga","id":"node/6726882961"},"geometry":{"type":"Point","coordinates":[-79.6470755,43.5845404]}},{"type":"Feature","id":"node/6726882962","properties":{"amenity":"bicycle_parking","bicycle_parking":"bollard","capacity":"2","operator":"City of Mississauga","id":"node/6726882962"},"geometry":{"type":"Point","coordinates":[-79.6470938,43.5845537]}},{"type":"Feature","id":"node/6738634977","properties":{"amenity":"bicycle_parking","bicycle_parking":"bollard","capacity":"2","operator":"City of Mississauga","id":"node/6738634977"},"geometry":{"type":"Point","coordinates":[-79.6473086,43.5847058]}},{"type":"Feature","id":"node/6738634978","properties":{"amenity":"bicycle_parking","bicycle_parking":"bollard","capacity":"2","operator":"City of Mississauga","id":"node/6738634978"},"geometry":{"type":"Point","coordinates":[-79.6473185,43.5847136]}},{"type":"Feature","id":"node/6738634979","properties":{"amenity":"bicycle_parking","bicycle_parking":"bollard","capacity":"2","operator":"City of Mississauga","id":"node/6738634979"},"geometry":{"type":"Point","coordinates":[-79.6475184,43.5848635]}},{"type":"Feature","id":"node/6738634980","properties":{"amenity":"bicycle_parking","bicycle_parking":"bollard","capacity":"2","operator":"City of Mississauga","id":"node/6738634980"},"geometry":{"type":"Point","coordinates":[-79.6475306,43.584871]}},{"type":"Feature","id":"node/6738634981","properties":{"amenity":"bicycle_parking","bicycle_parking":"bollard","capacity":"2","operator":"City of Mississauga","id":"node/6738634981"},"geometry":{"type":"Point","coordinates":[-79.6480656,43.5852578]}},{"type":"Feature","id":"node/6738634982","properties":{"amenity":"bicycle_parking","bicycle_parking":"bollard","capacity":"2","operator":"City of Mississauga","id":"node/6738634982"},"geometry":{"type":"Point","coordinates":[-79.6480741,43.5852637]}},{"type":"Feature","id":"node/6753380290","properties":{"amenity":"bicycle_parking","bicycle_parking":"bollard","capacity":"2","operator":"City of Mississauga","id":"node/6753380290"},"geometry":{"type":"Point","coordinates":[-79.6482841,43.5854119]}},{"type":"Feature","id":"node/6753380291","properties":{"amenity":"bicycle_parking","bicycle_parking":"bollard","capacity":"2","operator":"City of Mississauga","id":"node/6753380291"},"geometry":{"type":"Point","coordinates":[-79.6482933,43.5854186]}},{"type":"Feature","id":"node/6753380292","properties":{"amenity":"bicycle_parking","bicycle_parking":"bollard","capacity":"2","operator":"City of Mississauga","id":"node/6753380292"},"geometry":{"type":"Point","coordinates":[-79.6486137,43.5856507]}},{"type":"Feature","id":"node/6753380293","properties":{"amenity":"bicycle_parking","bicycle_parking":"bollard","capacity":"2","operator":"City of Mississauga","id":"node/6753380293"},"geometry":{"type":"Point","coordinates":[-79.6486261,43.5856574]}},{"type":"Feature","id":"node/6753380294","properties":{"amenity":"bicycle_parking","bicycle_parking":"bollard","capacity":"2","operator":"City of Mississauga","id":"node/6753380294"},"geometry":{"type":"Point","coordinates":[-79.6489095,43.5858583]}},{"type":"Feature","id":"node/6753380295","properties":{"amenity":"bicycle_parking","bicycle_parking":"bollard","capacity":"2","operator":"City of Mississauga","id":"node/6753380295"},"geometry":{"type":"Point","coordinates":[-79.6489188,43.5858627]}},{"type":"Feature","id":"node/6753380296","properties":{"amenity":"bicycle_parking","bicycle_parking":"bollard","capacity":"2","operator":"City of Mississauga","id":"node/6753380296"},"geometry":{"type":"Point","coordinates":[-79.645736,43.5848726]}},{"type":"Feature","id":"node/6753380297","properties":{"amenity":"bicycle_parking","bicycle_parking":"bollard","capacity":"2","operator":"City of Mississauga","id":"node/6753380297"},"geometry":{"type":"Point","coordinates":[-79.6457428,43.5848642]}},{"type":"Feature","id":"node/6753380298","properties":{"amenity":"bicycle_parking","bicycle_parking":"bollard","capacity":"2","operator":"City of Mississauga","id":"node/6753380298"},"geometry":{"type":"Point","coordinates":[-79.6454075,43.5851509]}},{"type":"Feature","id":"node/6753380299","properties":{"amenity":"bicycle_parking","bicycle_parking":"bollard","capacity":"2","operator":"City of Mississauga","id":"node/6753380299"},"geometry":{"type":"Point","coordinates":[-79.6453874,43.5851681]}},{"type":"Feature","id":"node/6753380300","properties":{"amenity":"bicycle_parking","bicycle_parking":"bollard","capacity":"2","operator":"City of Mississauga","id":"node/6753380300"},"geometry":{"type":"Point","coordinates":[-79.6453801,43.5851748]}},{"type":"Feature","id":"node/6753380301","properties":{"amenity":"bicycle_parking","bicycle_parking":"bollard","capacity":"2","operator":"City of Mississauga","id":"node/6753380301"},"geometry":{"type":"Point","coordinates":[-79.6453544,43.5857321]}},{"type":"Feature","id":"node/6753380302","properties":{"amenity":"bicycle_parking","bicycle_parking":"bollard","capacity":"2","operator":"City of Mississauga","id":"node/6753380302"},"geometry":{"type":"Point","coordinates":[-79.6453691,43.5857414]}},{"type":"Feature","id":"node/6753380303","properties":{"amenity":"bicycle_parking","bicycle_parking":"bollard","capacity":"2","operator":"City of Mississauga","id":"node/6753380303"},"geometry":{"type":"Point","coordinates":[-79.6457886,43.586036]}},{"type":"Feature","id":"node/6753755189","properties":{"amenity":"bicycle_parking","bicycle_parking":"bollard","capacity":"2","operator":"City of Mississauga","id":"node/6753755189"},"geometry":{"type":"Point","coordinates":[-79.6460315,43.5858702]}},{"type":"Feature","id":"node/6753755190","properties":{"amenity":"bicycle_parking","bicycle_parking":"bollard","capacity":"2","operator":"City of Mississauga","id":"node/6753755190"},"geometry":{"type":"Point","coordinates":[-79.6460192,43.585859]}},{"type":"Feature","id":"node/6753755191","properties":{"amenity":"bicycle_parking","bicycle_parking":"bollard","capacity":"2","operator":"City of Mississauga","id":"node/6753755191"},"geometry":{"type":"Point","coordinates":[-79.6456926,43.5856113]}},{"type":"Feature","id":"node/6753755192","properties":{"amenity":"bicycle_parking","bicycle_parking":"bollard","capacity":"2","operator":"City of Mississauga","id":"node/6753755192"},"geometry":{"type":"Point","coordinates":[-79.6456803,43.5856024]}},{"type":"Feature","id":"node/6753755193","properties":{"amenity":"bicycle_parking","bicycle_parking":"bollard","capacity":"2","operator":"City of Mississauga","id":"node/6753755193"},"geometry":{"type":"Point","coordinates":[-79.6464363,43.5910653]}},{"type":"Feature","id":"node/6753755194","properties":{"amenity":"bicycle_parking","bicycle_parking":"bollard","capacity":"2","operator":"City of Mississauga","id":"node/6753755194"},"geometry":{"type":"Point","coordinates":[-79.6464496,43.5910725]}},{"type":"Feature","id":"node/6754154373","properties":{"amenity":"bicycle_parking","bicycle_parking":"bollard","capacity":"2","operator":"City of Mississauga","id":"node/6754154373"},"geometry":{"type":"Point","coordinates":[-79.6470251,43.5914323]}},{"type":"Feature","id":"node/6754154374","properties":{"amenity":"bicycle_parking","bicycle_parking":"bollard","capacity":"2","operator":"City of Mississauga","id":"node/6754154374"},"geometry":{"type":"Point","coordinates":[-79.647019,43.5914271]}},{"type":"Feature","id":"node/6754154375","properties":{"amenity":"bicycle_parking","bicycle_parking":"bollard","capacity":"2","operator":"City of Mississauga","id":"node/6754154375"},"geometry":{"type":"Point","coordinates":[-79.6478701,43.5919321]}},{"type":"Feature","id":"node/6754154376","properties":{"amenity":"bicycle_parking","bicycle_parking":"bollard","capacity":"2","operator":"City of Mississauga","id":"node/6754154376"},"geometry":{"type":"Point","coordinates":[-79.6478767,43.5919273]}},{"type":"Feature","id":"node/6754154377","properties":{"amenity":"bicycle_parking","bicycle_parking":"bollard","capacity":"2","operator":"City of Mississauga","id":"node/6754154377"},"geometry":{"type":"Point","coordinates":[-79.6485847,43.5923802]}},{"type":"Feature","id":"node/6754154378","properties":{"amenity":"bicycle_parking","bicycle_parking":"bollard","capacity":"2","operator":"City of Mississauga","id":"node/6754154378"},"geometry":{"type":"Point","coordinates":[-79.6485956,43.5923739]}},{"type":"Feature","id":"node/6754154379","properties":{"amenity":"bicycle_parking","bicycle_parking":"bollard","capacity":"2","operator":"City of Mississauga","id":"node/6754154379"},"geometry":{"type":"Point","coordinates":[-79.6435318,43.5968986]}},{"type":"Feature","id":"node/6754154380","properties":{"amenity":"bicycle_parking","bicycle_parking":"bollard","capacity":"2","operator":"City of Mississauga","id":"node/6754154380"},"geometry":{"type":"Point","coordinates":[-79.6435483,43.5968933]}},{"type":"Feature","id":"node/6754154381","properties":{"amenity":"bicycle_parking","bicycle_parking":"bollard","capacity":"2","operator":"City of Mississauga","id":"node/6754154381"},"geometry":{"type":"Point","coordinates":[-79.6444954,43.5951061]}},{"type":"Feature","id":"node/6754154382","properties":{"amenity":"bicycle_parking","bicycle_parking":"bollard","capacity":"2","operator":"City of Mississauga","id":"node/6754154382"},"geometry":{"type":"Point","coordinates":[-79.6445028,43.5951008]}},{"type":"Feature","id":"node/6754154383","properties":{"amenity":"bicycle_parking","bicycle_parking":"bollard","capacity":"2","operator":"City of Mississauga","id":"node/6754154383"},"geometry":{"type":"Point","coordinates":[-79.6445779,43.5949442]}},{"type":"Feature","id":"node/6754154384","properties":{"amenity":"bicycle_parking","bicycle_parking":"bollard","capacity":"2","operator":"City of Mississauga","id":"node/6754154384"},"geometry":{"type":"Point","coordinates":[-79.6445889,43.5949376]}},{"type":"Feature","id":"node/6754157785","properties":{"amenity":"bicycle_parking","bicycle_parking":"bollard","capacity":"2","operator":"City of Mississauga","id":"node/6754157785"},"geometry":{"type":"Point","coordinates":[-79.6445577,43.5941972]}},{"type":"Feature","id":"node/6754157786","properties":{"amenity":"bicycle_parking","bicycle_parking":"bollard","capacity":"2","operator":"City of Mississauga","id":"node/6754157786"},"geometry":{"type":"Point","coordinates":[-79.6445724,43.5941853]}},{"type":"Feature","id":"node/6754157787","properties":{"amenity":"bicycle_parking","bicycle_parking":"bollard","capacity":"2","operator":"City of Mississauga","id":"node/6754157787"},"geometry":{"type":"Point","coordinates":[-79.6442042,43.5944971]}},{"type":"Feature","id":"node/6754157788","properties":{"amenity":"bicycle_parking","bicycle_parking":"bollard","capacity":"2","operator":"City of Mississauga","id":"node/6754157788"},"geometry":{"type":"Point","coordinates":[-79.6442206,43.5944865]}},{"type":"Feature","id":"node/6754220652","properties":{"amenity":"bicycle_parking","bicycle_parking":"bollard","capacity":"2","operator":"City of Mississauga","id":"node/6754220652"},"geometry":{"type":"Point","coordinates":[-79.6429421,43.5955743]}},{"type":"Feature","id":"node/6754220653","properties":{"amenity":"bicycle_parking","bicycle_parking":"bollard","capacity":"2","operator":"City of Mississauga","id":"node/6754220653"},"geometry":{"type":"Point","coordinates":[-79.6429256,43.5955615]}},{"type":"Feature","id":"node/6754220654","properties":{"amenity":"bicycle_parking","bicycle_parking":"bollard","capacity":"2","operator":"City of Mississauga","id":"node/6754220654"},"geometry":{"type":"Point","coordinates":[-79.6410859,43.5878186]}},{"type":"Feature","id":"node/6754220655","properties":{"amenity":"bicycle_parking","bicycle_parking":"bollard","capacity":"2","operator":"City of Mississauga","id":"node/6754220655"},"geometry":{"type":"Point","coordinates":[-79.6410257,43.587793]}},{"type":"Feature","id":"node/6754220656","properties":{"amenity":"bicycle_parking","bicycle_parking":"bollard","capacity":"2","operator":"City of Mississauga","id":"node/6754220656"},"geometry":{"type":"Point","coordinates":[-79.6405161,43.5875366]}},{"type":"Feature","id":"node/6754220657","properties":{"amenity":"bicycle_parking","bicycle_parking":"bollard","capacity":"2","operator":"City of Mississauga","id":"node/6754220657"},"geometry":{"type":"Point","coordinates":[-79.640332,43.5874649]}},{"type":"Feature","id":"node/6754220658","properties":{"amenity":"bicycle_parking","bicycle_parking":"bollard","capacity":"2","operator":"City of Mississauga","id":"node/6754220658"},"geometry":{"type":"Point","coordinates":[-79.6401445,43.5873956]}},{"type":"Feature","id":"node/6757191216","properties":{"amenity":"bicycle_parking","bicycle_parking":"bollard","capacity":"2","id":"node/6757191216"},"geometry":{"type":"Point","coordinates":[-79.6972288,43.5899664]}},{"type":"Feature","id":"node/6757191217","properties":{"amenity":"bicycle_parking","bicycle_parking":"bollard","capacity":"2","id":"node/6757191217"},"geometry":{"type":"Point","coordinates":[-79.6972257,43.5899631]}},{"type":"Feature","id":"node/6757191218","properties":{"amenity":"bicycle_parking","bicycle_parking":"bollard","capacity":"2","id":"node/6757191218"},"geometry":{"type":"Point","coordinates":[-79.6972228,43.5899606]}},{"type":"Feature","id":"node/6765143274","properties":{"amenity":"bicycle_parking","bicycle_parking":"rack","id":"node/6765143274"},"geometry":{"type":"Point","coordinates":[-79.5803972,43.6105675]}},{"type":"Feature","id":"node/6778426649","properties":{"amenity":"bicycle_parking","bicycle_parking":"bollard","id":"node/6778426649"},"geometry":{"type":"Point","coordinates":[-79.6357707,43.6664742]}},{"type":"Feature","id":"node/6789078971","properties":{"amenity":"bicycle_parking","bicycle_parking":"rack","id":"node/6789078971"},"geometry":{"type":"Point","coordinates":[-79.5807492,43.6112463]}},{"type":"Feature","id":"node/6789078972","properties":{"amenity":"bicycle_parking","bicycle_parking":"rack","id":"node/6789078972"},"geometry":{"type":"Point","coordinates":[-79.5785733,43.6108098]}},{"type":"Feature","id":"node/6799658048","properties":{"amenity":"bicycle_parking","bicycle_parking":"rack","id":"node/6799658048"},"geometry":{"type":"Point","coordinates":[-79.5770343,43.6102495]}},{"type":"Feature","id":"node/6821365778","properties":{"amenity":"bicycle_parking","bicycle_parking":"rack","id":"node/6821365778"},"geometry":{"type":"Point","coordinates":[-79.5772918,43.609597]}},{"type":"Feature","id":"node/6838993918","properties":{"amenity":"bicycle_parking","bicycle_parking":"bollard","id":"node/6838993918"},"geometry":{"type":"Point","coordinates":[-79.5575514,43.578212]}},{"type":"Feature","id":"node/6838993920","properties":{"amenity":"bicycle_parking","bicycle_parking":"rack","id":"node/6838993920"},"geometry":{"type":"Point","coordinates":[-79.5574733,43.5783504]}},{"type":"Feature","id":"node/6874288754","properties":{"amenity":"bicycle_parking","bicycle_parking":"bollard","capacity":"6","id":"node/6874288754"},"geometry":{"type":"Point","coordinates":[-79.6805307,43.6157705]}},{"type":"Feature","id":"node/6906990759","properties":{"amenity":"bicycle_parking","id":"node/6906990759"},"geometry":{"type":"Point","coordinates":[-79.5986813,43.6561662]}},{"type":"Feature","id":"node/6949714031","properties":{"amenity":"bicycle_parking","bicycle_parking":"rack","id":"node/6949714031"},"geometry":{"type":"Point","coordinates":[-79.5798647,43.5998645]}},{"type":"Feature","id":"node/6949714032","properties":{"amenity":"bicycle_parking","bicycle_parking":"rack","id":"node/6949714032"},"geometry":{"type":"Point","coordinates":[-79.579787,43.5999363]}},{"type":"Feature","id":"node/6965220093","properties":{"amenity":"bicycle_parking","bicycle_parking":"rack","id":"node/6965220093"},"geometry":{"type":"Point","coordinates":[-79.5802671,43.5992818]}},{"type":"Feature","id":"node/7041054558","properties":{"access":"customers","amenity":"bicycle_parking","bicycle_parking":"stands","capacity":"4","id":"node/7041054558"},"geometry":{"type":"Point","coordinates":[-79.6909673,43.6374091]}},{"type":"Feature","id":"node/7041054559","properties":{"access":"customers","amenity":"bicycle_parking","bicycle_parking":"stands","capacity":"4","id":"node/7041054559"},"geometry":{"type":"Point","coordinates":[-79.6914552,43.6377622]}},{"type":"Feature","id":"node/7041054560","properties":{"access":"customers","amenity":"bicycle_parking","bicycle_parking":"wave","capacity":"6","id":"node/7041054560"},"geometry":{"type":"Point","coordinates":[-79.6924711,43.6379569]}},{"type":"Feature","id":"node/7041054561","properties":{"access":"customers","amenity":"bicycle_parking","bicycle_parking":"wave","capacity":"6","id":"node/7041054561"},"geometry":{"type":"Point","coordinates":[-79.6920201,43.6384314]}},{"type":"Feature","id":"node/7041221262","properties":{"amenity":"bicycle_parking","bicycle_parking":"rack","id":"node/7041221262"},"geometry":{"type":"Point","coordinates":[-79.5926884,43.6381687]}},{"type":"Feature","id":"node/7057296466","properties":{"access":"customers","amenity":"bicycle_parking","bicycle_parking":"rack","capacity":"6","id":"node/7057296466"},"geometry":{"type":"Point","coordinates":[-79.6839528,43.5785593]}},{"type":"Feature","id":"node/7109566980","properties":{"access":"customers","amenity":"bicycle_parking","bicycle_parking":"rack","capacity":"5","id":"node/7109566980"},"geometry":{"type":"Point","coordinates":[-79.7406238,43.5895584]}},{"type":"Feature","id":"node/7159581359","properties":{"access":"yes","amenity":"bicycle_parking","bicycle_parking":"shed","capacity":"32","covered":"yes","fee":"no","operator":"Metrolinx","operator:type":"government_facility-public","id":"node/7159581359"},"geometry":{"type":"Point","coordinates":[-79.7115342,43.5427784]}},{"type":"Feature","id":"node/7159581360","properties":{"access":"yes","amenity":"bicycle_parking","bicycle_parking":"shed","capacity":"36","covered":"yes","fee":"no","operator":"Metrolinx","operator:type":"government_facility-public","id":"node/7159581360"},"geometry":{"type":"Point","coordinates":[-79.7075352,43.5447631]}},{"type":"Feature","id":"node/7243481032","properties":{"amenity":"bicycle_parking","bicycle_parking":"rack","id":"node/7243481032"},"geometry":{"type":"Point","coordinates":[-79.5800478,43.6117041]}},{"type":"Feature","id":"node/7243481034","properties":{"amenity":"bicycle_parking","bicycle_parking":"rack","id":"node/7243481034"},"geometry":{"type":"Point","coordinates":[-79.5784465,43.6121364]}},{"type":"Feature","id":"node/7243481038","properties":{"amenity":"bicycle_parking","bicycle_parking":"rack","id":"node/7243481038"},"geometry":{"type":"Point","coordinates":[-79.5790299,43.6123585]}},{"type":"Feature","id":"node/7319352011","properties":{"access":"private","amenity":"bicycle_parking","bicycle_parking":"stands","capacity":"8","id":"node/7319352011"},"geometry":{"type":"Point","coordinates":[-79.636203,43.5573291]}},{"type":"Feature","id":"node/7319352012","properties":{"access":"yes","amenity":"bicycle_parking","bicycle_parking":"rack","capacity":"6","id":"node/7319352012"},"geometry":{"type":"Point","coordinates":[-79.6328692,43.5592731]}},{"type":"Feature","id":"node/7319352013","properties":{"access":"yes","amenity":"bicycle_parking","bicycle_parking":"rack","capacity":"6","id":"node/7319352013"},"geometry":{"type":"Point","coordinates":[-79.6328417,43.5592702]}},{"type":"Feature","id":"node/7319352014","properties":{"access":"private","amenity":"bicycle_parking","bicycle_parking":"stands","capacity":"8","id":"node/7319352014"},"geometry":{"type":"Point","coordinates":[-79.630786,43.5595009]}},{"type":"Feature","id":"node/7319352015","properties":{"access":"private","amenity":"bicycle_parking","bicycle_parking":"wall_loops","capacity":"16","id":"node/7319352015"},"geometry":{"type":"Point","coordinates":[-79.6308043,43.5594999]}},{"type":"Feature","id":"node/7319352016","properties":{"access":"private","amenity":"bicycle_parking","bicycle_parking":"stands","capacity":"8","id":"node/7319352016"},"geometry":{"type":"Point","coordinates":[-79.6257179,43.5645342]}},{"type":"Feature","id":"node/7319352017","properties":{"access":"private","amenity":"bicycle_parking","bicycle_parking":"stands","capacity":"16","id":"node/7319352017"},"geometry":{"type":"Point","coordinates":[-79.6247483,43.5673158]}},{"type":"Feature","id":"node/7319352018","properties":{"access":"private","amenity":"bicycle_parking","bicycle_parking":"wave","capacity":"14","id":"node/7319352018"},"geometry":{"type":"Point","coordinates":[-79.6161484,43.5717897]}},{"type":"Feature","id":"node/7323517350","properties":{"access":"private","amenity":"bicycle_parking","bicycle_parking":"stands","capacity":"8","id":"node/7323517350"},"geometry":{"type":"Point","coordinates":[-79.6321578,43.5792967]}},{"type":"Feature","id":"node/7323517351","properties":{"access":"private","amenity":"bicycle_parking","bicycle_parking":"wave","capacity":"6","id":"node/7323517351"},"geometry":{"type":"Point","coordinates":[-79.6354884,43.5770549]}},{"type":"Feature","id":"node/7323517352","properties":{"access":"private","amenity":"bicycle_parking","bicycle_parking":"wave","capacity":"6","id":"node/7323517352"},"geometry":{"type":"Point","coordinates":[-79.6354567,43.5770507]}},{"type":"Feature","id":"node/7323517353","properties":{"access":"private","amenity":"bicycle_parking","bicycle_parking":"wave","capacity":"6","id":"node/7323517353"},"geometry":{"type":"Point","coordinates":[-79.6354308,43.5770424]}},{"type":"Feature","id":"node/7323517354","properties":{"access":"private","amenity":"bicycle_parking","bicycle_parking":"wave","capacity":"6","id":"node/7323517354"},"geometry":{"type":"Point","coordinates":[-79.635402,43.5770361]}},{"type":"Feature","id":"node/7323517355","properties":{"access":"private","amenity":"bicycle_parking","bicycle_parking":"wave","capacity":"6","id":"node/7323517355"},"geometry":{"type":"Point","coordinates":[-79.6353732,43.5770278]}},{"type":"Feature","id":"node/7323517356","properties":{"access":"yes","amenity":"bicycle_parking","bicycle_parking":"rack","capacity":"6","id":"node/7323517356"},"geometry":{"type":"Point","coordinates":[-79.6366724,43.579208]}},{"type":"Feature","id":"node/7323517357","properties":{"access":"private","amenity":"bicycle_parking","bicycle_parking":"rack","capacity":"8","id":"node/7323517357"},"geometry":{"type":"Point","coordinates":[-79.6367702,43.5817379]}},{"type":"Feature","id":"node/7323517358","properties":{"access":"private","amenity":"bicycle_parking","bicycle_parking":"rack","capacity":"8","id":"node/7323517358"},"geometry":{"type":"Point","coordinates":[-79.6367702,43.581724]}},{"type":"Feature","id":"node/7323517359","properties":{"access":"private","amenity":"bicycle_parking","bicycle_parking":"rack","capacity":"8","id":"node/7323517359"},"geometry":{"type":"Point","coordinates":[-79.6367694,43.5817096]}},{"type":"Feature","id":"node/7323517360","properties":{"access":"private","amenity":"bicycle_parking","bicycle_parking":"rack","capacity":"8","id":"node/7323517360"},"geometry":{"type":"Point","coordinates":[-79.6367694,43.5816987]}},{"type":"Feature","id":"node/7323517361","properties":{"access":"private","amenity":"bicycle_parking","bicycle_parking":"rack","capacity":"8","id":"node/7323517361"},"geometry":{"type":"Point","coordinates":[-79.6367694,43.5816849]}},{"type":"Feature","id":"node/7323517362","properties":{"access":"private","amenity":"bicycle_parking","bicycle_parking":"rack","capacity":"8","covered":"no","id":"node/7323517362"},"geometry":{"type":"Point","coordinates":[-79.6367711,43.5816746]}},{"type":"Feature","id":"node/7323517363","properties":{"access":"private","amenity":"bicycle_parking","bicycle_parking":"stands","capacity":"8","id":"node/7323517363"},"geometry":{"type":"Point","coordinates":[-79.6368526,43.5817536]}},{"type":"Feature","id":"node/7323517364","properties":{"access":"private","amenity":"bicycle_parking","bicycle_parking":"stands","capacity":"8","id":"node/7323517364"},"geometry":{"type":"Point","coordinates":[-79.6368293,43.5817734]}},{"type":"Feature","id":"node/7323517365","properties":{"access":"private","amenity":"bicycle_parking","bicycle_parking":"stands","capacity":"8","id":"node/7323517365"},"geometry":{"type":"Point","coordinates":[-79.636806,43.5817903]}},{"type":"Feature","id":"node/7323517366","properties":{"access":"yes","amenity":"bicycle_parking","bicycle_parking":"bollard","capacity":"2","id":"node/7323517366"},"geometry":{"type":"Point","coordinates":[-79.6477262,43.5811892]}},{"type":"Feature","id":"node/7323517367","properties":{"access":"yes","amenity":"bicycle_parking","bicycle_parking":"bollard","capacity":"2","id":"node/7323517367"},"geometry":{"type":"Point","coordinates":[-79.6477386,43.5811847]}},{"type":"Feature","id":"node/7323517368","properties":{"access":"yes","amenity":"bicycle_parking","bicycle_parking":"bollard","capacity":"2","id":"node/7323517368"},"geometry":{"type":"Point","coordinates":[-79.6477525,43.5811802]}},{"type":"Feature","id":"node/7323517369","properties":{"access":"yes","amenity":"bicycle_parking","bicycle_parking":"bollard","capacity":"2","id":"node/7323517369"},"geometry":{"type":"Point","coordinates":[-79.648173,43.5814351]}},{"type":"Feature","id":"node/7323517370","properties":{"access":"yes","amenity":"bicycle_parking","bicycle_parking":"bollard","capacity":"2","id":"node/7323517370"},"geometry":{"type":"Point","coordinates":[-79.6481811,43.5814324]}},{"type":"Feature","id":"node/7323517371","properties":{"access":"customers","amenity":"bicycle_parking","bicycle_parking":"rack","capacity":"3","id":"node/7323517371"},"geometry":{"type":"Point","coordinates":[-79.6471108,43.5791655]}},{"type":"Feature","id":"node/7323517372","properties":{"access":"customers","amenity":"bicycle_parking","bicycle_parking":"rack","capacity":"3","id":"node/7323517372"},"geometry":{"type":"Point","coordinates":[-79.6465295,43.5762043]}},{"type":"Feature","id":"node/7323517373","properties":{"access":"customers","amenity":"bicycle_parking","bicycle_parking":"wall_loops","capacity":"4","id":"node/7323517373"},"geometry":{"type":"Point","coordinates":[-79.6449273,43.5770941]}},{"type":"Feature","id":"node/7323517374","properties":{"access":"private","amenity":"bicycle_parking","bicycle_parking":"stands","capacity":"8","id":"node/7323517374"},"geometry":{"type":"Point","coordinates":[-79.63636,43.5884387]}},{"type":"Feature","id":"node/7323517375","properties":{"access":"private","amenity":"bicycle_parking","bicycle_parking":"stands","capacity":"8","id":"node/7323517375"},"geometry":{"type":"Point","coordinates":[-79.6358804,43.584605]}},{"type":"Feature","id":"node/7335897893","properties":{"access":"private","amenity":"bicycle_parking","bicycle_parking":"stands","capacity":"8","id":"node/7335897893"},"geometry":{"type":"Point","coordinates":[-79.6205474,43.589289]}},{"type":"Feature","id":"node/7335897894","properties":{"access":"customers","amenity":"bicycle_parking","bicycle_parking":"stands","capacity":"6","id":"node/7335897894"},"geometry":{"type":"Point","coordinates":[-79.626162,43.5923132]}},{"type":"Feature","id":"node/7335897895","properties":{"access":"yes","amenity":"bicycle_parking","bicycle_parking":"rack","capacity":"8","covered":"no","id":"node/7335897895"},"geometry":{"type":"Point","coordinates":[-79.6239807,43.5971896]}},{"type":"Feature","id":"node/7335897896","properties":{"access":"yes","amenity":"bicycle_parking","bicycle_parking":"rack","capacity":"8","id":"node/7335897896"},"geometry":{"type":"Point","coordinates":[-79.6237467,43.596635]}},{"type":"Feature","id":"node/7335897897","properties":{"access":"yes","amenity":"bicycle_parking","bicycle_parking":"rack","capacity":"8","covered":"no","id":"node/7335897897"},"geometry":{"type":"Point","coordinates":[-79.6237467,43.5966189]}},{"type":"Feature","id":"node/7335897898","properties":{"access":"private","amenity":"bicycle_parking","bicycle_parking":"wall_loops","capacity":"6","covered":"no","id":"node/7335897898"},"geometry":{"type":"Point","coordinates":[-79.6227525,43.5994601]}},{"type":"Feature","id":"node/7335897899","properties":{"access":"private","amenity":"bicycle_parking","bicycle_parking":"wall_loops","capacity":"9","id":"node/7335897899"},"geometry":{"type":"Point","coordinates":[-79.6226785,43.5994989]}},{"type":"Feature","id":"node/7335897900","properties":{"access":"private","amenity":"bicycle_parking","bicycle_parking":"wall_loops","capacity":"6","id":"node/7335897900"},"geometry":{"type":"Point","coordinates":[-79.6226659,43.5995099]}},{"type":"Feature","id":"node/7335897901","properties":{"access":"private","amenity":"bicycle_parking","bicycle_parking":"stands","capacity":"8","covered":"no","id":"node/7335897901"},"geometry":{"type":"Point","coordinates":[-79.6194749,43.6022259]}},{"type":"Feature","id":"node/7335897902","properties":{"access":"yes","amenity":"bicycle_parking","bicycle_parking":"bollard","capacity":"2","id":"node/7335897902"},"geometry":{"type":"Point","coordinates":[-79.6192754,43.5956497]}},{"type":"Feature","id":"node/7335897903","properties":{"access":"yes","amenity":"bicycle_parking","bicycle_parking":"bollard","capacity":"2","covered":"no","id":"node/7335897903"},"geometry":{"type":"Point","coordinates":[-79.6192574,43.5956477]}},{"type":"Feature","id":"node/7335897904","properties":{"access":"private","amenity":"bicycle_parking","bicycle_parking":"wall_loops","capacity":"9","id":"node/7335897904"},"geometry":{"type":"Point","coordinates":[-79.612754,43.5929154]}},{"type":"Feature","id":"node/7335897905","properties":{"access":"yes","amenity":"bicycle_parking","bicycle_parking":"bollard","capacity":"2","id":"node/7335897905"},"geometry":{"type":"Point","coordinates":[-79.6135682,43.5908204]}},{"type":"Feature","id":"node/7335897906","properties":{"access":"yes","amenity":"bicycle_parking","bicycle_parking":"bollard","capacity":"2","covered":"no","id":"node/7335897906"},"geometry":{"type":"Point","coordinates":[-79.6135547,43.5908164]}},{"type":"Feature","id":"node/7357119934","properties":{"access":"private","amenity":"bicycle_parking","bicycle_parking":"wall_loops","capacity":"12","id":"node/7357119934"},"geometry":{"type":"Point","coordinates":[-79.6305685,43.5726153]}},{"type":"Feature","id":"node/7357119935","properties":{"access":"customers","amenity":"bicycle_parking","bicycle_parking":"rack","capacity":"5","id":"node/7357119935"},"geometry":{"type":"Point","coordinates":[-79.6346787,43.5677327]}},{"type":"Feature","id":"node/7357119936","properties":{"access":"customers","amenity":"bicycle_parking","bicycle_parking":"bollard","capacity":"2","id":"node/7357119936"},"geometry":{"type":"Point","coordinates":[-79.6318026,43.5677181]}},{"type":"Feature","id":"node/7357119937","properties":{"access":"customers","amenity":"bicycle_parking","bicycle_parking":"bollard","capacity":"2","id":"node/7357119937"},"geometry":{"type":"Point","coordinates":[-79.6317716,43.5677024]}},{"type":"Feature","id":"node/7357119938","properties":{"access":"customers","amenity":"bicycle_parking","bicycle_parking":"bollard","capacity":"2","id":"node/7357119938"},"geometry":{"type":"Point","coordinates":[-79.6317414,43.5676839]}},{"type":"Feature","id":"node/7357119939","properties":{"access":"customers","amenity":"bicycle_parking","bicycle_parking":"bollard","capacity":"2","id":"node/7357119939"},"geometry":{"type":"Point","coordinates":[-79.6317151,43.5676676]}},{"type":"Feature","id":"node/7357119940","properties":{"access":"customers","amenity":"bicycle_parking","bicycle_parking":"bollard","capacity":"2","id":"node/7357119940"},"geometry":{"type":"Point","coordinates":[-79.631684,43.5676512]}},{"type":"Feature","id":"node/7357119941","properties":{"access":"customers","amenity":"bicycle_parking","bicycle_parking":"rack","capacity":"6","id":"node/7357119941"},"geometry":{"type":"Point","coordinates":[-79.6334952,43.5686311]}},{"type":"Feature","id":"node/7357119942","properties":{"access":"customers","amenity":"bicycle_parking","bicycle_parking":"rack","capacity":"3","id":"node/7357119942"},"geometry":{"type":"Point","coordinates":[-79.6351892,43.5663262]}},{"type":"Feature","id":"node/7357119943","properties":{"access":"customers","amenity":"bicycle_parking","bicycle_parking":"rack","capacity":"5","id":"node/7357119943"},"geometry":{"type":"Point","coordinates":[-79.635176,43.5663207]}},{"type":"Feature","id":"node/7366490944","properties":{"access":"private","amenity":"bicycle_parking","bicycle_parking":"wall_loops","capacity":"20","id":"node/7366490944"},"geometry":{"type":"Point","coordinates":[-79.6198933,43.5805274]}},{"type":"Feature","id":"node/7366490945","properties":{"access":"private","amenity":"bicycle_parking","bicycle_parking":"ground_slots","capacity":"30","id":"node/7366490945"},"geometry":{"type":"Point","coordinates":[-79.6202502,43.5808708]}},{"type":"Feature","id":"node/7366490946","properties":{"access":"customers","amenity":"bicycle_parking","bicycle_parking":"loops","capacity":"5","covered":"no","id":"node/7366490946"},"geometry":{"type":"Point","coordinates":[-79.6125802,43.5830918]}},{"type":"Feature","id":"node/7366490947","properties":{"access":"yes","amenity":"bicycle_parking","bicycle_parking":"bollard","capacity":"2","covered":"no","id":"node/7366490947"},"geometry":{"type":"Point","coordinates":[-79.6159153,43.5803588]}},{"type":"Feature","id":"node/7366490948","properties":{"access":"yes","amenity":"bicycle_parking","bicycle_parking":"bollard","capacity":"2","id":"node/7366490948"},"geometry":{"type":"Point","coordinates":[-79.6159085,43.5803655]}},{"type":"Feature","id":"node/7366490949","properties":{"access":"yes","amenity":"bicycle_parking","bicycle_parking":"bollard","capacity":"2","id":"node/7366490949"},"geometry":{"type":"Point","coordinates":[-79.6159011,43.5803717]}},{"type":"Feature","id":"node/7366490950","properties":{"access":"yes","amenity":"bicycle_parking","bicycle_parking":"bollard","capacity":"2","covered":"no","id":"node/7366490950"},"geometry":{"type":"Point","coordinates":[-79.6157152,43.5800929]}},{"type":"Feature","id":"node/7366490951","properties":{"access":"yes","amenity":"bicycle_parking","bicycle_parking":"bollard","capacity":"2","id":"node/7366490951"},"geometry":{"type":"Point","coordinates":[-79.6157241,43.5800978]}},{"type":"Feature","id":"node/7366490952","properties":{"access":"yes","amenity":"bicycle_parking","bicycle_parking":"bollard","capacity":"2","id":"node/7366490952"},"geometry":{"type":"Point","coordinates":[-79.6157319,43.5801048]}},{"type":"Feature","id":"node/7366490953","properties":{"access":"customers","amenity":"bicycle_parking","bicycle_parking":"rack","capacity":"6","covered":"no","id":"node/7366490953"},"geometry":{"type":"Point","coordinates":[-79.6156816,43.5783509]}},{"type":"Feature","id":"node/7369598770","properties":{"access":"yes","amenity":"bicycle_parking","bicycle_parking":"rack","capacity":"3","id":"node/7369598770"},"geometry":{"type":"Point","coordinates":[-79.6467527,43.5897017]}},{"type":"Feature","id":"node/7369598771","properties":{"access":"yes","amenity":"bicycle_parking","bicycle_parking":"rack","capacity":"3","id":"node/7369598771"},"geometry":{"type":"Point","coordinates":[-79.6456352,43.5892742]}},{"type":"Feature","id":"node/7369603343","properties":{"access":"customers","amenity":"bicycle_parking","bicycle_parking":"wall_loops","capacity":"9","id":"node/7369603343"},"geometry":{"type":"Point","coordinates":[-79.6446593,43.5865193]}},{"type":"Feature","id":"node/7369609275","properties":{"access":"yes","amenity":"bicycle_parking","bicycle_parking":"wave","capacity":"6","id":"node/7369609275"},"geometry":{"type":"Point","coordinates":[-79.6432568,43.5887863]}},{"type":"Feature","id":"node/7369609276","properties":{"access":"yes","amenity":"bicycle_parking","bicycle_parking":"wave","capacity":"6","id":"node/7369609276"},"geometry":{"type":"Point","coordinates":[-79.6432345,43.5888032]}},{"type":"Feature","id":"node/7369609277","properties":{"access":"yes","amenity":"bicycle_parking","bicycle_parking":"wave","capacity":"6","id":"node/7369609277"},"geometry":{"type":"Point","coordinates":[-79.6430618,43.5873935]}},{"type":"Feature","id":"node/7369609278","properties":{"access":"yes","amenity":"bicycle_parking","bicycle_parking":"wave","capacity":"6","id":"node/7369609278"},"geometry":{"type":"Point","coordinates":[-79.6430343,43.587417]}},{"type":"Feature","id":"node/7369609279","properties":{"access":"yes","amenity":"bicycle_parking","bicycle_parking":"wave","capacity":"6","id":"node/7369609279"},"geometry":{"type":"Point","coordinates":[-79.6430094,43.5874423]}},{"type":"Feature","id":"node/7369609280","properties":{"access":"yes","amenity":"bicycle_parking","bicycle_parking":"wave","capacity":"6","id":"node/7369609280"},"geometry":{"type":"Point","coordinates":[-79.6429832,43.5874658]}},{"type":"Feature","id":"node/7369609281","properties":{"access":"yes","amenity":"bicycle_parking","bicycle_parking":"wave","capacity":"6","id":"node/7369609281"},"geometry":{"type":"Point","coordinates":[-79.6435611,43.5873193]}},{"type":"Feature","id":"node/7369610570","properties":{"access":"private","amenity":"bicycle_parking","bicycle_parking":"stands","capacity":"2","id":"node/7369610570"},"geometry":{"type":"Point","coordinates":[-79.6477009,43.5914077]}},{"type":"Feature","id":"node/7369610571","properties":{"access":"private","amenity":"bicycle_parking","bicycle_parking":"stands","capacity":"2","id":"node/7369610571"},"geometry":{"type":"Point","coordinates":[-79.6476822,43.5914275]}},{"type":"Feature","id":"node/7369610572","properties":{"access":"private","amenity":"bicycle_parking","bicycle_parking":"stands","capacity":"2","id":"node/7369610572"},"geometry":{"type":"Point","coordinates":[-79.6476584,43.5914501]}},{"type":"Feature","id":"node/7369610573","properties":{"access":"private","amenity":"bicycle_parking","bicycle_parking":"stands","capacity":"2","id":"node/7369610573"},"geometry":{"type":"Point","coordinates":[-79.6476372,43.5914691]}},{"type":"Feature","id":"node/7369610574","properties":{"access":"private","amenity":"bicycle_parking","bicycle_parking":"stands","capacity":"2","id":"node/7369610574"},"geometry":{"type":"Point","coordinates":[-79.6476135,43.5914872]}},{"type":"Feature","id":"node/7369610575","properties":{"access":"private","amenity":"bicycle_parking","bicycle_parking":"stands","capacity":"22","id":"node/7369610575"},"geometry":{"type":"Point","coordinates":[-79.6463487,43.5909253]}},{"type":"Feature","id":"node/7369610576","properties":{"access":"private","amenity":"bicycle_parking","bicycle_parking":"stands","capacity":"28","id":"node/7369610576"},"geometry":{"type":"Point","coordinates":[-79.6464998,43.5907966]}},{"type":"Feature","id":"node/7369610577","properties":{"access":"yes","amenity":"bicycle_parking","bicycle_parking":"stands","capacity":"32","id":"node/7369610577"},"geometry":{"type":"Point","coordinates":[-79.6465036,43.590818]}},{"type":"Feature","id":"node/7369610578","properties":{"access":"private","amenity":"bicycle_parking","bicycle_parking":"stands","capacity":"2","id":"node/7369610578"},"geometry":{"type":"Point","coordinates":[-79.6484845,43.5907768]}},{"type":"Feature","id":"node/7369610580","properties":{"access":"customers","amenity":"bicycle_parking","bicycle_parking":"bollard","capacity":"6","id":"node/7369610580"},"geometry":{"type":"Point","coordinates":[-79.6432114,43.5971159]}},{"type":"Feature","id":"node/7369635282","properties":{"access":"customers","amenity":"bicycle_parking","bicycle_parking":"stands","capacity":"10","id":"node/7369635282"},"geometry":{"type":"Point","coordinates":[-79.6457905,43.5922309]}},{"type":"Feature","id":"node/7369635283","properties":{"access":"customers","amenity":"bicycle_parking","bicycle_parking":"stands","capacity":"6","id":"node/7369635283"},"geometry":{"type":"Point","coordinates":[-79.6462402,43.5926328]}},{"type":"Feature","id":"node/7369635284","properties":{"access":"customers","amenity":"bicycle_parking","bicycle_parking":"stands","capacity":"14","id":"node/7369635284"},"geometry":{"type":"Point","coordinates":[-79.6448535,43.5937857]}},{"type":"Feature","id":"node/7369642869","properties":{"access":"customers","amenity":"bicycle_parking","bicycle_parking":"bollard","capacity":"6","id":"node/7369642869"},"geometry":{"type":"Point","coordinates":[-79.6448627,43.5954075]}},{"type":"Feature","id":"node/7369642870","properties":{"access":"customers","amenity":"bicycle_parking","bicycle_parking":"bollard","capacity":"6","id":"node/7369642870"},"geometry":{"type":"Point","coordinates":[-79.6452121,43.5956502]}},{"type":"Feature","id":"node/7369642871","properties":{"access":"customers","amenity":"bicycle_parking","bicycle_parking":"rack","capacity":"8","id":"node/7369642871"},"geometry":{"type":"Point","coordinates":[-79.6441682,43.5959136]}},{"type":"Feature","id":"node/7369642872","properties":{"access":"customers","amenity":"bicycle_parking","bicycle_parking":"bollard","capacity":"4","id":"node/7369642872"},"geometry":{"type":"Point","coordinates":[-79.6437406,43.5964501]}},{"type":"Feature","id":"node/7369662106","properties":{"access":"customers","amenity":"bicycle_parking","bicycle_parking":"stands","capacity":"4","id":"node/7369662106"},"geometry":{"type":"Point","coordinates":[-79.6492116,43.5939012]}},{"type":"Feature","id":"node/7369662107","properties":{"access":"yes","amenity":"bicycle_parking","bicycle_parking":"rack","capacity":"8","id":"node/7369662107"},"geometry":{"type":"Point","coordinates":[-79.6469096,43.5941197]}},{"type":"Feature","id":"node/7369688285","properties":{"access":"customers","amenity":"bicycle_parking","bicycle_parking":"stands","capacity":"12","id":"node/7369688285"},"geometry":{"type":"Point","coordinates":[-79.6441568,43.5937437]}},{"type":"Feature","id":"node/7369688286","properties":{"access":"customers","amenity":"bicycle_parking","bicycle_parking":"stands","capacity":"2","id":"node/7369688286"},"geometry":{"type":"Point","coordinates":[-79.6438812,43.5944439]}},{"type":"Feature","id":"node/7369688287","properties":{"access":"customers","amenity":"bicycle_parking","bicycle_parking":"bollard","capacity":"6","id":"node/7369688287"},"geometry":{"type":"Point","coordinates":[-79.6408791,43.5933103]}},{"type":"Feature","id":"node/7369688288","properties":{"access":"customers","amenity":"bicycle_parking","bicycle_parking":"stands","capacity":"8","id":"node/7369688288"},"geometry":{"type":"Point","coordinates":[-79.6406825,43.5930535]}},{"type":"Feature","id":"node/7369689921","properties":{"access":"customers","amenity":"bicycle_parking","bicycle_parking":"stands","capacity":"8","id":"node/7369689921"},"geometry":{"type":"Point","coordinates":[-79.6412813,43.5915994]}},{"type":"Feature","id":"node/7369689922","properties":{"access":"customers","amenity":"bicycle_parking","bicycle_parking":"stands","capacity":"8","id":"node/7369689922"},"geometry":{"type":"Point","coordinates":[-79.6414153,43.5915994]}},{"type":"Feature","id":"node/7369689923","properties":{"access":"customers","amenity":"bicycle_parking","bicycle_parking":"stands","capacity":"4","id":"node/7369689923"},"geometry":{"type":"Point","coordinates":[-79.6418036,43.5911361]}},{"type":"Feature","id":"node/7369689924","properties":{"access":"customers","amenity":"bicycle_parking","bicycle_parking":"stands","capacity":"4","id":"node/7369689924"},"geometry":{"type":"Point","coordinates":[-79.642026,43.5909564]}},{"type":"Feature","id":"node/7369689925","properties":{"access":"customers","amenity":"bicycle_parking","bicycle_parking":"stands","capacity":"4","id":"node/7369689925"},"geometry":{"type":"Point","coordinates":[-79.6418132,43.5908324]}},{"type":"Feature","id":"node/7369689926","properties":{"access":"customers","amenity":"bicycle_parking","bicycle_parking":"stands","capacity":"2","id":"node/7369689926"},"geometry":{"type":"Point","coordinates":[-79.6415011,43.5907246]}},{"type":"Feature","id":"node/7369689927","properties":{"access":"customers","amenity":"bicycle_parking","bicycle_parking":"stands","capacity":"2","id":"node/7369689927"},"geometry":{"type":"Point","coordinates":[-79.6414035,43.5907976]}},{"type":"Feature","id":"node/7369689928","properties":{"access":"customers","amenity":"bicycle_parking","bicycle_parking":"stands","capacity":"6","id":"node/7369689928"},"geometry":{"type":"Point","coordinates":[-79.642783,43.5906122]}},{"type":"Feature","id":"node/7369689929","properties":{"access":"customers","amenity":"bicycle_parking","bicycle_parking":"stands","capacity":"4","id":"node/7369689929"},"geometry":{"type":"Point","coordinates":[-79.6426165,43.590487]}},{"type":"Feature","id":"node/7369689930","properties":{"access":"customers","amenity":"bicycle_parking","bicycle_parking":"stands","capacity":"2","id":"node/7369689930"},"geometry":{"type":"Point","coordinates":[-79.6426694,43.5903583]}},{"type":"Feature","id":"node/7369689931","properties":{"access":"customers","amenity":"bicycle_parking","bicycle_parking":"stands","capacity":"10","id":"node/7369689931"},"geometry":{"type":"Point","coordinates":[-79.6434423,43.590574]}},{"type":"Feature","id":"node/7369689932","properties":{"access":"customers","amenity":"bicycle_parking","bicycle_parking":"stands","capacity":"2","id":"node/7369689932"},"geometry":{"type":"Point","coordinates":[-79.6428195,43.5902386]}},{"type":"Feature","id":"node/7369689933","properties":{"access":"customers","amenity":"bicycle_parking","bicycle_parking":"stands","capacity":"4","id":"node/7369689933"},"geometry":{"type":"Point","coordinates":[-79.642475,43.5902332]}},{"type":"Feature","id":"node/7393407982","properties":{"access":"private","amenity":"bicycle_parking","bicycle_parking":"wall_loops","capacity":"12","covered":"no","id":"node/7393407982"},"geometry":{"type":"Point","coordinates":[-79.6101132,43.5934544]}},{"type":"Feature","id":"node/7393407983","properties":{"access":"private","amenity":"bicycle_parking","bicycle_parking":"wall_loops","capacity":"9","id":"node/7393407983"},"geometry":{"type":"Point","coordinates":[-79.6114971,43.607019]}},{"type":"Feature","id":"node/7393407984","properties":{"access":"private","amenity":"bicycle_parking","bicycle_parking":"wave","capacity":"18","id":"node/7393407984"},"geometry":{"type":"Point","coordinates":[-79.6052899,43.606606]}},{"type":"Feature","id":"node/7393413685","properties":{"access":"private","amenity":"bicycle_parking","bicycle_parking":"wave","capacity":"18","id":"node/7393413685"},"geometry":{"type":"Point","coordinates":[-79.6041473,43.6072285]}},{"type":"Feature","id":"node/7393413686","properties":{"access":"private","amenity":"bicycle_parking","bicycle_parking":"wave","capacity":"12","id":"node/7393413686"},"geometry":{"type":"Point","coordinates":[-79.5996855,43.6035411]}},{"type":"Feature","id":"node/7393413687","properties":{"access":"private","amenity":"bicycle_parking","bicycle_parking":"wave","capacity":"12","id":"node/7393413687"},"geometry":{"type":"Point","coordinates":[-79.5996368,43.6035848]}},{"type":"Feature","id":"node/7393413688","properties":{"access":"private","amenity":"bicycle_parking","bicycle_parking":"wall_loops","capacity":"10","id":"node/7393413688"},"geometry":{"type":"Point","coordinates":[-79.599485,43.6034142]}},{"type":"Feature","id":"node/7393413689","properties":{"access":"private","amenity":"bicycle_parking","bicycle_parking":"stands","capacity":"16","id":"node/7393413689"},"geometry":{"type":"Point","coordinates":[-79.6048988,43.6129089]}},{"type":"Feature","id":"node/7393413690","properties":{"access":"private","amenity":"bicycle_parking","bicycle_parking":"wave","capacity":"6","id":"node/7393413690"},"geometry":{"type":"Point","coordinates":[-79.6127805,43.6232262]}},{"type":"Feature","id":"node/7393413691","properties":{"access":"private","amenity":"bicycle_parking","bicycle_parking":"wall_loops","capacity":"4","id":"node/7393413691"},"geometry":{"type":"Point","coordinates":[-79.6262407,43.6126873]}},{"type":"Feature","id":"node/7633539085","properties":{"amenity":"bicycle_parking","bicycle_parking":"shed","id":"node/7633539085"},"geometry":{"type":"Point","coordinates":[-79.71509,43.554008]}},{"type":"Feature","id":"node/7641071985","properties":{"amenity":"bicycle_parking","bicycle_parking":"wave","capacity":"20","id":"node/7641071985"},"geometry":{"type":"Point","coordinates":[-79.70981,43.62407]}},{"type":"Feature","id":"node/7641317285","properties":{"amenity":"bicycle_parking","bicycle_parking":"wave","capacity":"5","id":"node/7641317285"},"geometry":{"type":"Point","coordinates":[-79.71115,43.5594]}},{"type":"Feature","id":"node/7641341885","properties":{"amenity":"bicycle_parking","bicycle_parking":"wall_loops","capacity":"4","covered":"no","id":"node/7641341885"},"geometry":{"type":"Point","coordinates":[-79.60326,43.57771]}},{"type":"Feature","id":"node/7647131586","properties":{"amenity":"bicycle_parking","bicycle_parking":"wave","capacity":"4","id":"node/7647131586"},"geometry":{"type":"Point","coordinates":[-79.71686,43.63813]}},{"type":"Feature","id":"node/7647142085","properties":{"amenity":"bicycle_parking","bicycle_parking":"rack","capacity":"4","id":"node/7647142085"},"geometry":{"type":"Point","coordinates":[-79.71948,43.63712]}},{"type":"Feature","id":"node/7654577586","properties":{"amenity":"bicycle_parking","bicycle_parking":"bollard","id":"node/7654577586"},"geometry":{"type":"Point","coordinates":[-79.75831,43.58025]}},{"type":"Feature","id":"node/7654673785","properties":{"amenity":"bicycle_parking","bicycle_parking":"bollard","capacity":"1","id":"node/7654673785"},"geometry":{"type":"Point","coordinates":[-79.75846,43.58013]}},{"type":"Feature","id":"node/7654679185","properties":{"amenity":"bicycle_parking","bicycle_parking":"bollard","capacity":"1","id":"node/7654679185"},"geometry":{"type":"Point","coordinates":[-79.75794,43.58036]}},{"type":"Feature","id":"node/7683217486","properties":{"amenity":"bicycle_parking","bicycle_parking":"shed","capacity":"10","id":"node/7683217486"},"geometry":{"type":"Point","coordinates":[-79.71146,43.54288]}},{"type":"Feature","id":"node/7684181085","properties":{"amenity":"bicycle_parking","bicycle_parking":"stands","capacity":"8","id":"node/7684181085"},"geometry":{"type":"Point","coordinates":[-79.60658,43.64891]}},{"type":"Feature","id":"node/7729206586","properties":{"amenity":"bicycle_parking","bicycle_parking":"rack","capacity":"4","id":"node/7729206586"},"geometry":{"type":"Point","coordinates":[-79.62915,43.509]}},{"type":"Feature","id":"node/7732330185","properties":{"amenity":"bicycle_parking","bicycle_parking":"wave","capacity":"5","id":"node/7732330185"},"geometry":{"type":"Point","coordinates":[-79.71585,43.63935]}},{"type":"Feature","id":"node/7796708085","properties":{"amenity":"bicycle_parking","bicycle_parking":"bollard","capacity":"2","id":"node/7796708085"},"geometry":{"type":"Point","coordinates":[-79.66269,43.59687]}},{"type":"Feature","id":"node/7805239185","properties":{"amenity":"bicycle_parking","bicycle_parking":"bollard","capacity":"2","id":"node/7805239185"},"geometry":{"type":"Point","coordinates":[-79.68878,43.58667]}},{"type":"Feature","id":"node/7805239186","properties":{"amenity":"bicycle_parking","bicycle_parking":"bollard","capacity":"2","id":"node/7805239186"},"geometry":{"type":"Point","coordinates":[-79.68894,43.5866]}},{"type":"Feature","id":"node/7806514585","properties":{"access":"customers","amenity":"bicycle_parking","bicycle_parking":"rack","capacity":"8","covered":"no","id":"node/7806514585"},"geometry":{"type":"Point","coordinates":[-79.61284,43.57749]}},{"type":"Feature","id":"node/7811233486","properties":{"amenity":"bicycle_parking","bicycle_parking":"wall_loops","capacity":"9","id":"node/7811233486"},"geometry":{"type":"Point","coordinates":[-79.62008,43.57758]}},{"type":"Feature","id":"node/7811239385","properties":{"amenity":"bicycle_parking","bicycle_parking":"rack","capacity":"8","id":"node/7811239385"},"geometry":{"type":"Point","coordinates":[-79.60788,43.57183]}},{"type":"Feature","id":"node/7811239585","properties":{"amenity":"bicycle_parking","bicycle_parking":"rack","capacity":"6","id":"node/7811239585"},"geometry":{"type":"Point","coordinates":[-79.60682,43.57254]}},{"type":"Feature","id":"node/7811241885","properties":{"amenity":"bicycle_parking","bicycle_parking":"stands","capacity":"12","id":"node/7811241885"},"geometry":{"type":"Point","coordinates":[-79.61132,43.57231]}},{"type":"Feature","id":"node/7835665785","properties":{"amenity":"bicycle_parking","bicycle_parking":"rack","capacity":"8","id":"node/7835665785"},"geometry":{"type":"Point","coordinates":[-79.63125,43.71228]}},{"type":"Feature","id":"node/7835669185","properties":{"amenity":"bicycle_parking","bicycle_parking":"wall_loops","capacity":"8","id":"node/7835669185"},"geometry":{"type":"Point","coordinates":[-79.63014,43.62565]}},{"type":"Feature","id":"node/7835688085","properties":{"amenity":"bicycle_parking","bicycle_parking":"wall_loops","capacity":"8","covered":"no","id":"node/7835688085"},"geometry":{"type":"Point","coordinates":[-79.6278,43.60304]}},{"type":"Feature","id":"node/7835705785","properties":{"amenity":"bicycle_parking","bicycle_parking":"wall_loops","capacity":"8","covered":"no","id":"node/7835705785"},"geometry":{"type":"Point","coordinates":[-79.62659,43.60261]}},{"type":"Feature","id":"node/7835910085","properties":{"amenity":"bicycle_parking","bicycle_parking":"bollard","capacity":"10","id":"node/7835910085"},"geometry":{"type":"Point","coordinates":[-79.63542,43.59723]}},{"type":"Feature","id":"node/7853215685","properties":{"access":"customers","amenity":"bicycle_parking","bicycle_parking":"rack","capacity":"6","covered":"no","id":"node/7853215685"},"geometry":{"type":"Point","coordinates":[-79.63879,43.5829]}},{"type":"Feature","id":"node/7881391825","properties":{"amenity":"bicycle_parking","bicycle_parking":"rack","capacity":"8","covered":"no","id":"node/7881391825"},"geometry":{"type":"Point","coordinates":[-79.6308805,43.7138655]}},{"type":"Feature","id":"node/7881887805","properties":{"amenity":"bicycle_parking","bicycle_parking":"rack","covered":"no","id":"node/7881887805"},"geometry":{"type":"Point","coordinates":[-79.5897301,43.5507798]}},{"type":"Feature","id":"node/7885374853","properties":{"amenity":"bicycle_parking","bicycle_parking":"rack","capacity":"8","covered":"no","id":"node/7885374853"},"geometry":{"type":"Point","coordinates":[-79.6735588,43.5652092]}},{"type":"Feature","id":"node/7952816130","properties":{"amenity":"bicycle_parking","id":"node/7952816130"},"geometry":{"type":"Point","coordinates":[-79.5749322,43.5925976]}},{"type":"Feature","id":"node/7952819052","properties":{"amenity":"bicycle_parking","id":"node/7952819052"},"geometry":{"type":"Point","coordinates":[-79.5749322,43.5925976]}},{"type":"Feature","id":"node/7952833062","properties":{"access":"customers","amenity":"bicycle_parking","bicycle_parking":"rack","capacity":"4","covered":"no","id":"node/7952833062"},"geometry":{"type":"Point","coordinates":[-79.5749322,43.5925976]}},{"type":"Feature","id":"node/8059115578","properties":{"access":"yes","amenity":"bicycle_parking","bicycle_parking":"rack","capacity":"2","covered":"no","fee":"no","operator":"City of Mississauga","operator:type":"public","id":"node/8059115578"},"geometry":{"type":"Point","coordinates":[-79.7143303,43.5822639]}}]}